{
  "type": "FeatureCollection",
  "features": [
    {
      "type": "Feature",
      "properties": {
        "norad_id": 27954,
        "name": "GALAXY 13 (HORIZONS-1)",
        "group": "intelsat",
        "lat": -0.9555368806945435,
        "lon": -5.3062157147876965,
        "alt_km": 35787.22513840727,
        "timestamp": "2025-12-20T03:42:47.059553+00:00",
        "meta_object_name": "GALAXY 13 (HORIZONS-1)",
        "meta_object_id": "2003-044A",
        "meta_epoch": "2025-12-19T15:58:31.983744",
        "meta_mean_motion": 1.00269435,
        "meta_eccentricity": 0.0002408,
        "meta_inclination": 0.9543,
        "meta_ra_of_asc_node": 86.3811,
        "meta_arg_of_pericenter": 175.8948,
        "meta_mean_anomaly": 275.8576,
        "meta_ephemeris_type": 0,
        "meta_classification_type": "U",
        "meta_norad_cat_id": 27954,
        "meta_element_set_no": 999,
        "meta_rev_at_epoch": 4477,
        "meta_bstar": 0,
        "meta_mean_motion_dot": 1.56e-06,
        "meta_mean_motion_ddot": 0,
        "tle_line1": "1 27954U 03044A   25353.66564796  .00000156  00000+0  00000+0 0  9995",
        "tle_line2": "2 27954   0.9543  86.3811 0002408 175.8948 275.8576  1.00269435 44775"
      },
      "geometry": {
        "type": "Point",
        "coordinates": [
          -5.3062157147876965,
          -0.9555368806945435
        ]
      }
    },
    {
      "type": "Feature",
      "properties": {
        "norad_id": 28358,
        "name": "INTELSAT 10-02",
        "group": "intelsat",
        "lat": 0.026215958714126693,
        "lon": 143.71172099781893,
        "alt_km": 35789.75015595645,
        "timestamp": "2025-12-20T03:42:47.059565+00:00",
        "meta_object_name": "INTELSAT 10-02",
        "meta_object_id": "2004-022A",
        "meta_epoch": "2025-12-19T18:23:37.440384",
        "meta_mean_motion": 1.00270732,
        "meta_eccentricity": 8.65e-05,
        "meta_inclination": 0.019,
        "meta_ra_of_asc_node": 66.4308,
        "meta_arg_of_pericenter": 235.6744,
        "meta_mean_anomaly": 61.4488,
        "meta_ephemeris_type": 0,
        "meta_classification_type": "U",
        "meta_norad_cat_id": 28358,
        "meta_element_set_no": 999,
        "meta_rev_at_epoch": 7875,
        "meta_bstar": 0,
        "meta_mean_motion_dot": 1.4e-07,
        "meta_mean_motion_ddot": 0,
        "tle_line1": "1 28358U 04022A   25353.76640556  .00000014  00000+0  00000+0 0  9994",
        "tle_line2": "2 28358   0.0190  66.4308 0000865 235.6744  61.4488  1.00270732 78755"
      },
      "geometry": {
        "type": "Point",
        "coordinates": [
          143.71172099781893,
          0.026215958714126693
        ]
      }
    },
    {
      "type": "Feature",
      "properties": {
        "norad_id": 28626,
        "name": "XM-3 (RHYTHM)",
        "group": "intelsat",
        "lat": 0.09735487714020269,
        "lon": -136.27153071147234,
        "alt_km": 36166.59277680642,
        "timestamp": "2025-12-20T03:42:47.059577+00:00",
        "meta_object_name": "XM-3 (RHYTHM)",
        "meta_object_id": "2005-008A",
        "meta_epoch": "2025-12-19T19:49:33.291264",
        "meta_mean_motion": 0.98950037,
        "meta_eccentricity": 0.0001909,
        "meta_inclination": 0.1922,
        "meta_ra_of_asc_node": 81.9536,
        "meta_arg_of_pericenter": 278.1936,
        "meta_mean_anomaly": 106.5385,
        "meta_ephemeris_type": 0,
        "meta_classification_type": "U",
        "meta_norad_cat_id": 28626,
        "meta_element_set_no": 999,
        "meta_rev_at_epoch": 4082,
        "meta_bstar": 0,
        "meta_mean_motion_dot": 6.2e-07,
        "meta_mean_motion_ddot": 0,
        "tle_line1": "1 28626U 05008A   25353.82607976  .00000062  00000+0  00000+0 0  9996",
        "tle_line2": "2 28626   0.1922  81.9536 0001909 278.1936 106.5385  0.98950037 40820"
      },
      "geometry": {
        "type": "Point",
        "coordinates": [
          -136.27153071147234,
          0.09735487714020269
        ]
      }
    },
    {
      "type": "Feature",
      "properties": {
        "norad_id": 28659,
        "name": "DIRECTV 8",
        "group": "intelsat",
        "lat": 0.029408654422001593,
        "lon": 25.669957534024235,
        "alt_km": 35789.90412835922,
        "timestamp": "2025-12-20T03:42:47.059589+00:00",
        "meta_object_name": "DIRECTV 8",
        "meta_object_id": "2005-019A",
        "meta_epoch": "2025-12-19T17:49:48.179136",
        "meta_mean_motion": 1.0027119,
        "meta_eccentricity": 0.0002837,
        "meta_inclination": 0.0186,
        "meta_ra_of_asc_node": 339.2172,
        "meta_arg_of_pericenter": 298.7344,
        "meta_mean_anomaly": 319.047,
        "meta_ephemeris_type": 0,
        "meta_classification_type": "U",
        "meta_norad_cat_id": 28659,
        "meta_element_set_no": 999,
        "meta_rev_at_epoch": 7527,
        "meta_bstar": 0,
        "meta_mean_motion_dot": 2.6e-07,
        "meta_mean_motion_ddot": 0,
        "tle_line1": "1 28659U 05019A   25353.74291874  .00000026  00000+0  00000+0 0  9991",
        "tle_line2": "2 28659   0.0186 339.2172 0002837 298.7344 319.0470  1.00271190 75277"
      },
      "geometry": {
        "type": "Point",
        "coordinates": [
          25.669957534024235,
          0.029408654422001593
        ]
      }
    },
    {
      "type": "Feature",
      "properties": {
        "norad_id": 28702,
        "name": "GALAXY 28 (G-28)",
        "group": "intelsat",
        "lat": -1.1843883993256432,
        "lon": 56.047636747913174,
        "alt_km": 35796.205181599624,
        "timestamp": "2025-12-20T03:42:47.059615+00:00",
        "meta_object_name": "GALAXY 28 (G-28)",
        "meta_object_id": "2005-022A",
        "meta_epoch": "2025-12-19T11:26:27.362976",
        "meta_mean_motion": 1.00271143,
        "meta_eccentricity": 0.000292,
        "meta_inclination": 2.8368,
        "meta_ra_of_asc_node": 81.2048,
        "meta_arg_of_pericenter": 192.9214,
        "meta_mean_anomaly": 257.1318,
        "meta_ephemeris_type": 0,
        "meta_classification_type": "U",
        "meta_norad_cat_id": 28702,
        "meta_element_set_no": 999,
        "meta_rev_at_epoch": 5017,
        "meta_bstar": 0,
        "meta_mean_motion_dot": -1.65e-06,
        "meta_mean_motion_ddot": 0,
        "tle_line1": "1 28702U 05022A   25353.47670559 -.00000165  00000+0  00000+0 0  9990",
        "tle_line2": "2 28702   2.8368  81.2048 0002920 192.9214 257.1318  1.00271143 50171"
      },
      "geometry": {
        "type": "Point",
        "coordinates": [
          56.047636747913174,
          -1.1843883993256432
        ]
      }
    },
    {
      "type": "Feature",
      "properties": {
        "norad_id": 29236,
        "name": "GALAXY 16 (G-16)",
        "group": "intelsat",
        "lat": 0.004061358539383455,
        "lon": 45.69361489060222,
        "alt_km": 35794.19298116812,
        "timestamp": "2025-12-20T03:42:47.059630+00:00",
        "meta_object_name": "GALAXY 16 (G-16)",
        "meta_object_id": "2006-023A",
        "meta_epoch": "2025-12-19T19:38:15.293184",
        "meta_mean_motion": 1.00271351,
        "meta_eccentricity": 0.0002456,
        "meta_inclination": 0.0112,
        "meta_ra_of_asc_node": 252.3404,
        "meta_arg_of_pericenter": 13.2897,
        "meta_mean_anomaly": 18.5919,
        "meta_ephemeris_type": 0,
        "meta_classification_type": "U",
        "meta_norad_cat_id": 29236,
        "meta_element_set_no": 999,
        "meta_rev_at_epoch": 7117,
        "meta_bstar": 0,
        "meta_mean_motion_dot": -1.02e-06,
        "meta_mean_motion_ddot": 0,
        "tle_line1": "1 29236U 06023A   25353.81823256 -.00000102  00000+0  00000+0 0  9998",
        "tle_line2": "2 29236   0.0112 252.3404 0002456  13.2897  18.5919  1.00271351 71174"
      },
      "geometry": {
        "type": "Point",
        "coordinates": [
          45.69361489060222,
          0.004061358539383455
        ]
      }
    },
    {
      "type": "Feature",
      "properties": {
        "norad_id": 29494,
        "name": "DIRECTV 9S",
        "group": "intelsat",
        "lat": -1.2295227948074057,
        "lon": 43.51214205505869,
        "alt_km": 35793.837236905005,
        "timestamp": "2025-12-20T03:42:47.059642+00:00",
        "meta_object_name": "DIRECTV 9S",
        "meta_object_id": "2006-043A",
        "meta_epoch": "2025-12-19T13:25:20.116704",
        "meta_mean_motion": 1.00271735,
        "meta_eccentricity": 0.0002813,
        "meta_inclination": 1.9568,
        "meta_ra_of_asc_node": 83.1418,
        "meta_arg_of_pericenter": 191.001,
        "meta_mean_anomaly": 274.3862,
        "meta_ephemeris_type": 0,
        "meta_classification_type": "U",
        "meta_norad_cat_id": 29494,
        "meta_element_set_no": 999,
        "meta_rev_at_epoch": 4958,
        "meta_bstar": 0,
        "meta_mean_motion_dot": -9e-07,
        "meta_mean_motion_ddot": 0,
        "tle_line1": "1 29494U 06043A   25353.55926061 -.00000090  00000+0  00000+0 0  9991",
        "tle_line2": "2 29494   1.9568  83.1418 0002813 191.0010 274.3862  1.00271735 49584"
      },
      "geometry": {
        "type": "Point",
        "coordinates": [
          43.51214205505869,
          -1.2295227948074057
        ]
      }
    }
  ]
}